PAKSAT-1R               
1 37779U 11042A   26186.15646372  .00000167  00000+0  00000+0 0  9990
2 37779   0.7326  84.4475 0003154 356.0363 297.0053  1.00275692 54652
SES-2                   
1 37809U 11049A   26186.13171588 -.00000183  00000+0  00000+0 0  9990
2 37809   0.1018  92.5966 0002897  10.7521 140.2061  1.00271883 54146
ARABSAT-5C              
1 37810U 11049B   26186.22416700  .00000137  00000+0  00000+0 0  9998
2 37810   0.0560  29.0185 0003486  92.3167 262.5767  1.00273204 54212
EUTELSAT 7 WEST A       
1 37816U 11051A   26186.21879365 -.00000047  00000+0  00000+0 0  9997
2 37816   0.0616  12.6074 0004650 102.6103 239.4506  1.00271406 54052
QUETZSAT 1              
1 37826U 11054A   26183.56707965 -.00000231  00000+0  00000+0 0  9997
2 37826   0.0341 293.4838 0002997 173.6787 300.5957  1.00271106 50023
INTELSAT 18 (IS-18)     
1 37834U 11056A   26186.18460038  .00000066  00000+0  00000+0 0  9991
2 37834   0.0195 291.7484 0001935 181.2028  56.6829  1.00271917 53997
EUTELSAT 16A            
1 37836U 11057A   26186.22338700  .00000117  00000+0  00000+0 0  9996
2 37836   0.0392 347.1872 0005799 113.4791 278.9659  1.00269939  7519
VIASAT-1                
1 37843U 11059A   26183.85521115  .00000000  00000+0  00000+0 0  9997
2 37843   0.0211  26.3466 0002317  77.4105   9.9113  1.00270964 47480
ASIASAT 7               
1 37933U 11069A   26186.02726425 -.00000321  00000+0  00000+0 0  9998
2 37933   0.0114 316.1593 0001361 128.0447 314.1567  1.00270359 45034
BEIDOU-2 IGSO-5         
1 37948U 11073A   26183.72937883 -.00000128  00000+0  00000+0 0  9990
2 37948  47.6496 271.3544 0114527 222.0502 141.5350  1.00270596 53296
LUCH-5A                 
1 37951U 11074B   26185.89688361 -.00000040  00000+0  00000+0 0  9992
2 37951   8.7957  73.5495 0002653  47.6496 291.5283  1.00272677 53222
NIGCOMSAT 1R            
1 38014U 11077A   26186.15741705  .00000158  00000+0  00000+0 0  9997
2 38014   0.0140 206.1354 0002513 147.8389  28.3334  1.00272680 53136
WGS F4 (USA 233)        
1 38070U 12003A   26183.79930490  .00000000  00000+0  00000+0 0  9993
2 38070   0.0212  33.4355 0001623  91.9508 171.6061  1.00267905 44305
SES-4                   
1 38087U 12007A   26183.36433681 -.00000158  00000+0  00000+0 0  9993
2 38087   0.0229  41.5467 0002404  57.1982 290.8171  1.00271083 52377
BEIDOU-2 G5             
1 38091U 12008A   26186.16062374  .00000069  00000+0  00000+0 0  9997
2 38091   3.6158  69.5897 0007564 274.8959  55.2585  1.00268298 52548
MUOS-1                  
1 38093U 12009A   26186.20039988 -.00000117  00000+0  00000+0 0  9995
2 38093   5.5121  47.1343 0057431   2.8843 205.3574  1.00272436 52622
INTELSAT 22 (IS-22)     
1 38098U 12011A   26186.16322375 -.00000045  00000+0  00000+0 0  9993
2 38098   0.0217  57.9162 0001709  43.4768 312.6166  1.00271412  7368
APSTAR-7                
1 38107U 12013A   26186.09286626 -.00000089  00000+0  00000+0 0  9994
2 38107   0.0331  88.7561 0003309  22.7215 281.5639  1.00271869 51988
YAHSAT 1B               
1 38245U 12016A   26183.23556196  .00000137  00000+0  00000+0 0  9998
2 38245   0.0892  88.9189 0003263  30.5528 293.2016  1.00267795 45754
AEHF-2 (USA 235)        
1 38254U 12019A   26186.17961221 -.00000125  00000+0  00000+0 0  9994
2 38254   6.6912  57.3561 0002164  45.8148 228.1455  1.00272968  7164
JCSAT-13                
1 38331U 12023A   26186.03099093 -.00000343  00000+0  00000+0 0  9991
2 38331   0.0134  56.4354 0002855  57.0181 304.7393  1.00272986 51715
VINASAT-2               
1 38332U 12023B   26184.53541043 -.00000318  00000+0  00000+0 0  9994
2 38332   0.0163 341.4410 0002493 127.0026 137.7058  1.00270214 46822
NIMIQ 6                 
1 38342U 12026A   26186.13093587 -.00000161  00000+0  00000+0 0  9997
2 38342   0.0345 279.5728 0002773 187.3321 132.2645  1.00271550 50591
ZHONGXING-2A            
1 38352U 12028A   26186.09711295 -.00000280  00000+0  00000+0 0  9990
2 38352   1.4983  83.6673 0001961  24.8714 307.7551  1.00270587 51479
INTELSAT 19 (IS-19)     
1 38356U 12030A   26186.19905799 -.00000043  00000+0  00000+0 0  9999
2 38356   0.0164  38.7379 0003291  75.8247  46.2954  1.00271550 50638
ECHOSTAR 17             
1 38551U 12035A   26184.91584470 -.00000064  00000+0  00000+0 0  9991
2 38551   0.0187  28.8424 0001943  71.1266  44.5707  1.00271043 51234
METEOSAT-10 (MSG-3)     
1 38552U 12035B   26186.00637748  .00000004  00000+0  00000+0 0  9994
2 38552   4.7109  60.9311 0001435  17.4847 206.9928  1.00269644 51037
SES-5                   
1 38652U 12036A   26183.65487642  .00000044  00000+0  00000+0 0  9994
2 38652   0.0450 320.1883 0002267 138.1529  63.0821  1.00270830 44612
INTELSAT 20 (IS-20)     
1 38740U 12043A   26186.16235707 -.00000011  00000+0  00000+0 0  9997
2 38740   0.0103  49.6416 0001273 130.8763 229.5771  1.00270762 50923
HYLAS 2                 
1 38741U 12043B   26186.20588024 -.00000245  00000+0  00000+0 0  9995
2 38741   2.4708  80.8590 0002605  44.2999 159.5911  1.00271664 50953
INTELSAT 21 (IS-21)     
1 38749U 12045A   26186.20874025 -.00000272  00000+0  00000+0 0  9994
2 38749   0.0188 294.8026 0001838 185.9128 179.6476  1.00271421 50705
ASTRA 2F                
1 38778U 12051A   26186.22581368  .00000163  00000+0  00000+0 0  9998
2 38778   0.0650 250.9771 0002530 285.8549 215.8925  1.00273298 41311
