OBJECT_NAME,OBJECT_ID,EPOCH,MEAN_MOTION,ECCENTRICITY,INCLINATION,RA_OF_ASC_NODE,ARG_OF_PERICENTER,MEAN_ANOMALY,EPHEMERIS_TYPE,CLASSIFICATION_TYPE,NORAD_CAT_ID,ELEMENT_SET_NO,REV_AT_EPOCH,BSTAR,MEAN_MOTION_DOT,MEAN_MOTION_DDOT
PAKSAT-1R,2011-042A,2026-07-05T03:45:18.465408,1.00275692,.00031545,0.7326,84.4475,356.0363,297.0053,0,U,37779,999,5465,0,.167E-5,0
SES-2,2011-049A,2026-07-05T03:09:40.252032,1.00271883,.00028974,0.1018,92.5966,10.7521,140.2061,0,U,37809,999,5414,0,-.183E-5,0
ARABSAT-5C,2011-049B,2026-07-05T05:22:48.028800,1.00273204,.00034865,0.0560,29.0185,92.3167,262.5767,0,U,37810,999,5421,0,.137E-5,0
EUTELSAT 7 WEST A,2011-051A,2026-07-05T05:15:03.771360,1.00271406,.00046505,0.0616,12.6074,102.6103,239.4506,0,U,37816,999,5405,0,-.47E-6,0
QUETZSAT 1,2011-054A,2026-07-02T13:36:35.681760,1.00271106,.0002997,0.0341,293.4838,173.6787,300.5957,0,U,37826,999,5002,0,-.231E-5,0
INTELSAT 18 (IS-18),2011-056A,2026-07-05T04:25:49.472832,1.00271917,.00019352,0.0195,291.7484,181.2028,56.6829,0,U,37834,999,5399,0,.66E-6,0
EUTELSAT 16A,2011-057A,2026-07-05T05:21:40.636800,1.00269939,.0005799,0.0392,347.1872,113.4791,278.9659,0,U,37836,999,751,0,.117E-5,0
VIASAT-1,2011-059A,2026-07-02T20:31:30.243360,1.00270964,.00023173,0.0211,26.3466,77.4105,9.9113,0,U,37843,999,4748,0,0,0
ASIASAT 7,2011-069A,2026-07-05T00:39:15.631200,1.00270359,.00013614,0.0114,316.1593,128.0447,314.1567,0,U,37933,999,4503,0,-.321E-5,0
BEIDOU-2 IGSO-5,2011-073A,2026-07-02T17:30:18.330912,1.00270596,.01145273,47.6496,271.3544,222.0502,141.5350,0,U,37948,999,5329,0,-.128E-5,0
LUCH-5A,2011-074B,2026-07-04T21:31:30.743904,1.00272677,.00026538,8.7957,73.5495,47.6496,291.5283,0,U,37951,999,5322,0,-.4E-6,0
NIGCOMSAT 1R,2011-077A,2026-07-05T03:46:40.833120,1.00272680,.00025133,0.0140,206.1354,147.8389,28.3334,0,U,38014,999,5313,0,.158E-5,0
WGS F4 (USA 233),2012-003A,2026-07-02T19:10:59.943360,1.00267905,.00016231,0.0212,33.4355,91.9508,171.6061,0,U,38070,999,4430,0,0,0
SES-4,2012-007A,2026-07-02T08:44:38.700384,1.00271083,.0002404,0.0229,41.5467,57.1982,290.8171,0,U,38087,999,5237,0,-.158E-5,0
BEIDOU-2 G5,2012-008A,2026-07-05T03:51:17.891136,1.00268298,.00075648,3.6158,69.5897,274.8959,55.2585,0,U,38091,999,5254,0,.69E-6,0
MUOS-1,2012-009A,2026-07-05T04:48:34.549632,1.00272436,.00574317,5.5121,47.1343,2.8843,205.3574,0,U,38093,999,5262,0,-.117E-5,0
INTELSAT 22 (IS-22),2012-011A,2026-07-05T03:55:02.532000,1.00271412,.00017093,0.0217,57.9162,43.4768,312.6166,0,U,38098,999,736,0,-.45E-6,0
APSTAR-7,2012-013A,2026-07-05T02:13:43.644864,1.00271869,.00033098,0.0331,88.7561,22.7215,281.5639,0,U,38107,999,5198,0,-.89E-6,0
YAHSAT 1B,2012-016A,2026-07-02T05:39:12.553344,1.00267795,.0003263,0.0892,88.9189,30.5528,293.2016,0,U,38245,999,4575,0,.137E-5,0
AEHF-2 (USA 235),2012-019A,2026-07-05T04:18:38.494944,1.00272968,.00021647,6.6912,57.3561,45.8148,228.1455,0,U,38254,999,716,0,-.125E-5,0
JCSAT-13,2012-023A,2026-07-05T00:44:37.616352,1.00272986,.00028552,0.0134,56.4354,57.0181,304.7393,0,U,38331,999,5171,0,-.343E-5,0
VINASAT-2,2012-023B,2026-07-03T12:50:59.461152,1.00270214,.0002493,0.0163,341.4410,127.0026,137.7058,0,U,38332,999,4682,0,-.318E-5,0
NIMIQ 6,2012-026A,2026-07-05T03:08:32.859168,1.00271550,.00027731,0.0345,279.5728,187.3321,132.2645,0,U,38342,999,5059,0,-.161E-5,0
ZHONGXING-2A,2012-028A,2026-07-05T02:19:50.558880,1.00270587,.00019614,1.4983,83.6673,24.8714,307.7551,0,U,38352,999,5147,0,-.28E-5,0
INTELSAT 19 (IS-19),2012-030A,2026-07-05T04:46:38.610336,1.00271550,.0003291,0.0164,38.7379,75.8247,46.2954,0,U,38356,999,5063,0,-.43E-6,0
ECHOSTAR 17,2012-035A,2026-07-03T21:58:48.982080,1.00271043,.0001943,0.0187,28.8424,71.1266,44.5707,0,U,38551,999,5123,0,-.64E-6,0
METEOSAT-10 (MSG-3),2012-035B,2026-07-05T00:09:11.014272,1.00269644,.00014355,4.7109,60.9311,17.4847,206.9928,0,U,38552,999,5103,0,.4E-7,0
SES-5,2012-036A,2026-07-02T15:43:01.322688,1.00270830,.00022676,0.0450,320.1883,138.1529,63.0821,0,U,38652,999,4461,0,.44E-6,0
INTELSAT 20 (IS-20),2012-043A,2026-07-05T03:53:47.650848,1.00270762,.00012738,0.0103,49.6416,130.8763,229.5771,0,U,38740,999,5092,0,-.11E-6,0
HYLAS 2,2012-043B,2026-07-05T04:56:28.052736,1.00271664,.00026059,2.4708,80.8590,44.2999,159.5911,0,U,38741,999,5095,0,-.245E-5,0
INTELSAT 21 (IS-21),2012-045A,2026-07-05T05:00:35.157600,1.00271421,.00018385,0.0188,294.8026,185.9128,179.6476,0,U,38749,999,5070,0,-.272E-5,0
ASTRA 2F,2012-051A,2026-07-05T05:25:10.301952,1.00273298,.00025309,0.0650,250.9771,285.8549,215.8925,0,U,38778,999,4131,0,.163E-5,0
